GPS BIIR-2  (PRN 13)    
1 24876U 97035A   25042.09889831 -.00000021  00000+0  00000+0 0  9992
2 24876  55.7540 117.7868 0086811  54.2986 306.5542  2.00562499202108
GPS BIIR-4  (PRN 20)    
1 26360U 00025A   25042.60586681 -.00000064  00000+0  00000+0 0  9996
2 26360  54.8507  39.1440 0039049 229.6472 227.1646  2.00560596181434
GPS BIIR-5  (PRN 22)    
1 26407U 00040A   25042.45600338  .00000040  00000+0  00000+0 0  9997
2 26407  54.9799 234.6626 0135384 298.3861 247.4821  2.00563812180109
GPS BIIR-8  (PRN 16)    
1 27663U 03005A   25042.28949056  .00000042  00000+0  00000+0 0  9992
2 27663  55.0154 234.4799 0143440  49.5287 157.1354  2.00561279161461
GPS BIIR-11 (PRN 19)    
1 28190U 04009A   25042.03477081 -.00000029  00000+0  00000+0 0  9996
2 28190  55.2459 295.4774 0100324 156.5279  20.2219  2.00570997153098
GPS BIIR-13 (PRN 02)    
1 28474U 04045A   25038.40758860 -.00000104  00000+0  00000+0 0  9998
2 28474  55.3691 344.7881 0167141 300.3113 182.2437  2.00563521148501
GPS BIIRM-1 (PRN 17)    
1 28874U 05038A   25042.49970970 -.00000025  00000+0  00000+0 0  9999
2 28874  55.2901 292.9275 0134506 289.0601 249.9791  2.00569177141996
GPS BIIRM-2 (PRN 31)    
1 29486U 06042A   25042.36132892 -.00000024  00000+0  00000+0 0  9993
2 29486  54.6810 170.8097 0104984  45.0728 294.0722  2.00569305134542
GPS BIIRM-3 (PRN 12)    
1 29601U 06052A   25037.82883658  .00000091  00000+0  00000+0 0  9994
2 29601  55.0559 233.6529 0087985  84.4364 276.5955  2.00554729133476
GPS BIIRM-4 (PRN 15)    
1 32260U 07047A   25041.62772959 -.00000022  00000+0  00000+0 0  9993
2 32260  53.7448 100.3724 0158910  79.7095 282.1450  2.00553199126953
GPS BIIRM-5 (PRN 29)    
1 32384U 07062A   25040.70150144 -.00000024  00000+0  00000+0 0  9993
2 32384  55.4365 293.8988 0028587 153.9119  25.9438  2.00560118125637
GPS BIIRM-6 (PRN 07)    
1 32711U 08012A   25042.53581478 -.00000024  00000+0  00000+0 0  9994
2 32711  54.4579 169.5089 0193381 241.3642 116.6370  2.00554467123918
GPS BIIRM-8 (PRN 05)    
1 35752U 09043A   25042.02234691 -.00000047  00000+0  00000+0 0  9998
2 35752  55.8689  46.8076 0053498  74.9669 285.7010  2.00555253113506
GPS BIIF-1  (PRN 25)    
1 36585U 10022A   25041.84068123  .00000043  00000+0  00000+0 0  9991
2 36585  54.3730 228.3653 0121667  63.4382 284.7890  2.00563538107737
GPS BIIF-3  (PRN 24)    
1 38833U 12053A   25041.72215673 -.00000033  00000+0  00000+0 0  9996
2 38833  53.5283 163.7192 0162992  59.7192 301.8411  2.00561424 89586
GPS BIIF-4  (PRN 27)    
1 39166U 13023A   25041.58461034 -.00000014  00000+0  00000+0 0  9991
2 39166  54.9053 288.9506 0131825  46.2521 314.8986  2.00561982 86029
GPS BIIF-5  (PRN 30)    
1 39533U 14008A   25041.08472415 -.00000027  00000+0  00000+0 0  9997
2 39533  53.6082 169.3796 0075341 221.8620 137.5161  2.00555740 79818
GPS BIIF-6  (PRN 06)    
1 39741U 14026A   25041.36890963 -.00000111  00000+0  00000+0 0  9995
2 39741  56.6786 350.6348 0036304 317.9130  41.8005  2.00551456 78677
GPS BIIF-7  (PRN 09)    
1 40105U 14045A   25042.44702632 -.00000014  00000+0  00000+0 0  9999
2 40105  55.0464 108.0461 0028812 118.5976 241.7557  2.00552563 76231
GPS BIIF-8  (PRN 03)    
1 40294U 14068A   25042.32230476 -.00000041  00000+0  00000+0 0  9992
2 40294  56.6230  49.9303 0055287  63.7288 296.8764  2.00575087 75369
GPS BIIF-9  (PRN 26)    
1 40534U 15013A   25041.96208063  .00000035  00000+0  00000+0 0  9998
2 40534  53.2710 224.5033 0097434  34.2204 326.3996  2.00551072 71971
GPS BIIF-10 (PRN 08)    
1 40730U 15033A   25042.12277963 -.00000013  00000+0  00000+0 0  9999
2 40730  54.3855 287.2841 0103667  22.9815 337.5485  2.00554710 70149
GPS BIIF-11 (PRN 10)    
1 41019U 15062A   25042.18049664 -.00000041  00000+0  00000+0 0  9994
2 41019  56.6008  49.7914 0103014 228.1718 130.9802  2.00566647 67983
GPS BIIF-12 (PRN 32)    
1 41328U 16007A   25042.26778531 -.00000015  00000+0  00000+0 0  9999
2 41328  55.2337 108.9492 0086343 241.0878 118.1042  2.00550335 65991
GPS BIII-1  (PRN 04)    
1 43873U 18109A   25042.42750025 -.00000015  00000+0  00000+0 0  9997
2 43873  55.4005 111.5698 0032964 195.9903 174.6246  2.00564714 45230
GPS BIII-2  (PRN 18)    
1 44506U 19056A   25041.54491455 -.00000112  00000+0  00000+0 0  9992
2 44506  55.8133 350.6504 0048741 194.6141 161.6569  2.00560046 40202
GPS BIII-3  (PRN 23)    
1 45854U 20041A   25042.37544663 -.00000045  00000+0  00000+0 0  9992
2 45854  56.3210  48.0508 0050891 199.4741 337.7622  2.00568667 34195
GPS BIII-4  (PRN 14)    
1 46826U 20078A   25040.47497619  .00000063  00000+0  00000+0 0  9998
2 46826  54.0992 230.7677 0053664 198.3978  18.3410  2.00559149 31622
GPS BIII-5  (PRN 11)    
1 48859U 21054A   25040.41230269 -.00000110  00000+0  00000+0 0  9995
2 48859  55.3439 352.2364 0019054 231.3889 127.7036  2.00571271 26866
GPS BIII-6  (PRN 28)    
1 55268U 23009A   25035.37859376  .00000050  00000+0  00000+0 0  9996
2 55268  55.0907 168.0644 0001455  61.5670 298.5690  2.00546882 15261
GPS BIII-7  (PRN 01)    
1 62339U 24242A   25042.52255230 -.00000112  00000+0  00000+0 0  9997
2 62339  54.9952 354.0462 0004610 305.8686 257.9281  2.00556033  1414
